{"type": "FeatureCollection", "features": [{"type": "Feature", "properties": {"norad_id": 28054, "name": "DMSP 5D-3 F16 (USA 172)", "group": "weather", "lat": -28.275136020891342, "lon": 18.79860852097016, "alt_km": 846.620257567809, "timestamp": "2025-12-22T08:58:19.986537+00:00", "meta": {"OBJECT_NAME": "DMSP 5D-3 F16 (USA 172)", "OBJECT_ID": "2003-048A", "EPOCH": "2025-12-22T04:24:41.086368", "MEAN_MOTION": 14.14427472, "ECCENTRICITY": 0.0006264, "INCLINATION": 99.0038, "RA_OF_ASC_NODE": 13.7148, "ARG_OF_PERICENTER": 290.6515, "MEAN_ANOMALY": 153.6465, "EPHEMERIS_TYPE": 0, "CLASSIFICATION_TYPE": "U", "NORAD_CAT_ID": 28054, "ELEMENT_SET_NO": 999, "REV_AT_EPOCH": 14446, "BSTAR": 8.3121e-05, "MEAN_MOTION_DOT": 1.14e-06, "MEAN_MOTION_DDOT": 0}, "tle": {"line1": "1 28054U 03048A   25356.18380887  .00000114  00000+0  83121-4 0  9992", "line2": "2 28054  99.0038  13.7148 0006264 290.6515 153.6465 14.14427472144465"}}, "geometry": {"type": "Point", "coordinates": [18.79860852097016, -28.275136020891342]}}, {"type": "Feature", "properties": {"norad_id": 28912, "name": "METEOSAT-9 (MSG-2)", "group": "weather", "lat": -4.924450031151598, "lon": -91.10231513845578, "alt_km": 35636.20954340329, "timestamp": "2025-12-22T08:58:19.986585+00:00", "meta": {"OBJECT_NAME": "METEOSAT-9 (MSG-2)", "OBJECT_ID": "2005-049B", "EPOCH": "2025-12-21T18:33:02.923200", "MEAN_MOTION": 1.00265925, "ECCENTRICITY": 0.0100454, "INCLINATION": 8.9455, "RA_OF_ASC_NODE": 55.869, "ARG_OF_PERICENTER": 282.9863, "MEAN_ANOMALY": 74.5349, "EPHEMERIS_TYPE": 0, "CLASSIFICATION_TYPE": "U", "NORAD_CAT_ID": 28912, "ELEMENT_SET_NO": 999, "REV_AT_EPOCH": 521, "BSTAR": 0, "MEAN_MOTION_DOT": 1.13e-06, "MEAN_MOTION_DDOT": 0}, "tle": {"line1": "1 28912U 05049B   25355.77295050  .00000113  00000+0  00000+0 0  9998", "line2": "2 28912   8.9455  55.8690 0100454 282.9863  74.5349  1.00265925  5210"}}, "geometry": {"type": "Point", "coordinates": [-91.10231513845578, -4.924450031151598]}}, {"type": "Feature", "properties": {"norad_id": 29522, "name": "DMSP 5D-3 F17 (USA 191)", "group": "weather", "lat": -69.32980838360352, "lon": 25.622928740636095, "alt_km": 850.1628572751797, "timestamp": "2025-12-22T08:58:19.986602+00:00", "meta": {"OBJECT_NAME": "DMSP 5D-3 F17 (USA 191)", "OBJECT_ID": "2006-050A", "EPOCH": "2025-12-22T02:31:11.913600", "MEAN_MOTION": 14.14923598, "ECCENTRICITY": 0.0009801, "INCLINATION": 98.739, "RA_OF_ASC_NODE": 1.2991, "ARG_OF_PERICENTER": 196.7438, "MEAN_ANOMALY": 163.3414, "EPHEMERIS_TYPE": 0, "CLASSIFICATION_TYPE": "U", "NORAD_CAT_ID": 29522, "ELEMENT_SET_NO": 999, "REV_AT_EPOCH": 98737, "BSTAR": 9.4878e-05, "MEAN_MOTION_DOT": 1.4e-06, "MEAN_MOTION_DDOT": 0}, "tle": {"line1": "1 29522U 06050A   25356.10499900  .00000140  00000+0  94878-4 0  9998", "line2": "2 29522  98.7390   1.2991 0009801 196.7438 163.3414 14.14923598987378"}}, "geometry": {"type": "Point", "coordinates": [25.622928740636095, -69.32980838360352]}}, {"type": "Feature", "properties": {"norad_id": 32958, "name": "FENGYUN 3A", "group": "weather", "lat": 17.924886791960642, "lon": 118.52758863857714, "alt_km": 829.8600068663609, "timestamp": "2025-12-22T08:58:19.986615+00:00", "meta": {"OBJECT_NAME": "FENGYUN 3A", "OBJECT_ID": "2008-026A", "EPOCH": "2025-12-22T03:08:12.860160", "MEAN_MOTION": 14.19517336, "ECCENTRICITY": 0.000765, "INCLINATION": 98.671, "RA_OF_ASC_NODE": 295.4602, "ARG_OF_PERICENTER": 280.0547, "MEAN_ANOMALY": 79.9766, "EPHEMERIS_TYPE": 0, "CLASSIFICATION_TYPE": "U", "NORAD_CAT_ID": 32958, "ELEMENT_SET_NO": 999, "REV_AT_EPOCH": 91028, "BSTAR": 6.1416e-05, "MEAN_MOTION_DOT": 8.6e-07, "MEAN_MOTION_DDOT": 0}, "tle": {"line1": "1 32958U 08026A   25356.13070440  .00000086  00000+0  61416-4 0  9998", "line2": "2 32958  98.6710 295.4602 0007650 280.0547  79.9766 14.19517336910286"}}, "geometry": {"type": "Point", "coordinates": [118.52758863857714, 17.924886791960642]}}, {"type": "Feature", "properties": {"norad_id": 35491, "name": "GOES 14", "group": "weather", "lat": 0.5363218951177033, "lon": 109.91910523502679, "alt_km": 35837.269206041914, "timestamp": "2025-12-22T08:58:19.986629+00:00", "meta": {"OBJECT_NAME": "GOES 14", "OBJECT_ID": "2009-033A", "EPOCH": "2025-12-22T04:25:04.886112", "MEAN_MOTION": 1.00096971, "ECCENTRICITY": 5.42e-05, "INCLINATION": 1.2268, "RA_OF_ASC_NODE": 85.3095, "ARG_OF_PERICENTER": 186.2033, "MEAN_ANOMALY": 130.0391, "EPHEMERIS_TYPE": 0, "CLASSIFICATION_TYPE": "U", "NORAD_CAT_ID": 35491, "ELEMENT_SET_NO": 999, "REV_AT_EPOCH": 481, "BSTAR": 0, "MEAN_MOTION_DOT": 2.6e-07, "MEAN_MOTION_DDOT": 0}, "tle": {"line1": "1 35491U 09033A   25356.18408433  .00000026  00000+0  00000+0 0  9995", "line2": "2 35491   1.2268  85.3095 0000542 186.2033 130.0391  1.00096971  4810"}}, "geometry": {"type": "Point", "coordinates": [109.91910523502679, 0.5363218951177033]}}, {"type": "Feature", "properties": {"norad_id": 35951, "name": "DMSP 5D-3 F18 (USA 210)", "group": "weather", "lat": 28.32552508182311, "lon": 157.56338152645625, "alt_km": 845.1923978050245, "timestamp": "2025-12-22T08:58:19.986641+00:00", "meta": {"OBJECT_NAME": "DMSP 5D-3 F18 (USA 210)", "OBJECT_ID": "2009-057A", "EPOCH": "2025-12-22T03:10:07.962240", "MEAN_MOTION": 14.14775318, "ECCENTRICITY": 0.0011804, "INCLINATION": 98.8845, "RA_OF_ASC_NODE": 332.4863, "ARG_OF_PERICENTER": 37.9587, "MEAN_ANOMALY": 322.2416, "EPHEMERIS_TYPE": 0, "CLASSIFICATION_TYPE": "U", "NORAD_CAT_ID": 35951, "ELEMENT_SET_NO": 999, "REV_AT_EPOCH": 83455, "BSTAR": 0.0001701, "MEAN_MOTION_DOT": 2.84e-06, "MEAN_MOTION_DDOT": 0}, "tle": {"line1": "1 35951U 09057A   25356.13203660  .00000284  00000+0  17010-3 0  9991", "line2": "2 35951  98.8845 332.4863 0011804  37.9587 322.2416 14.14775318834555"}}, "geometry": {"type": "Point", "coordinates": [157.56338152645625, 28.32552508182311]}}, {"type": "Feature", "properties": {"norad_id": 36411, "name": "EWS-G2 (GOES 15)", "group": "weather", "lat": -0.32574534953206463, "lon": -72.86140877881097, "alt_km": 35764.95516274158, "timestamp": "2025-12-22T08:58:19.986654+00:00", "meta": {"OBJECT_NAME": "EWS-G2 (GOES 15)", "OBJECT_ID": "2010-008A", "EPOCH": "2025-12-22T03:11:05.468352", "MEAN_MOTION": 1.00271006, "ECCENTRICITY": 0.000548, "INCLINATION": 0.8355, "RA_OF_ASC_NODE": 86.0788, "ARG_OF_PERICENTER": 177.9544, "MEAN_ANOMALY": 296.0414, "EPHEMERIS_TYPE": 0, "CLASSIFICATION_TYPE": "U", "NORAD_CAT_ID": 36411, "ELEMENT_SET_NO": 999, "REV_AT_EPOCH": 5786, "BSTAR": 0, "MEAN_MOTION_DOT": 6e-07, "MEAN_MOTION_DDOT": 0}, "tle": {"line1": "1 36411U 10008A   25356.13270218  .00000060  00000+0  00000+0 0  9993", "line2": "2 36411   0.8355  86.0788 0005480 177.9544 296.0414  1.00271006 57868"}}, "geometry": {"type": "Point", "coordinates": [-72.86140877881097, -0.32574534953206463]}}, {"type": "Feature", "properties": {"norad_id": 36744, "name": "COMS 1", "group": "weather", "lat": -4.3467640103592995, "lon": -6.035927957047862, "alt_km": 35785.62847695671, "timestamp": "2025-12-22T08:58:19.986667+00:00", "meta": {"OBJECT_NAME": "COMS 1", "OBJECT_ID": "2010-032A", "EPOCH": "2025-12-21T20:05:21.835392", "MEAN_MOTION": 1.00271509, "ECCENTRICITY": 7.4e-05, "INCLINATION": 4.3609, "RA_OF_ASC_NODE": 77.8959, "ARG_OF_PERICENTER": 208.2946, "MEAN_ANOMALY": 233.9792, "EPHEMERIS_TYPE": 0, "CLASSIFICATION_TYPE": "U", "NORAD_CAT_ID": 36744, "ELEMENT_SET_NO": 999, "REV_AT_EPOCH": 4931, "BSTAR": 0, "MEAN_MOTION_DOT": -3.25e-06, "MEAN_MOTION_DDOT": 0}, "tle": {"line1": "1 36744U 10032A   25355.83705828 -.00000325  00000+0  00000+0 0  9990", "line2": "2 36744   4.3609  77.8959 0000740 208.2946 233.9792  1.00271509 49312"}}, "geometry": {"type": "Point", "coordinates": [-6.035927957047862, -4.3467640103592995]}}, {"type": "Feature", "properties": {"norad_id": 37214, "name": "FENGYUN 3B", "group": "weather", "lat": 62.06905119153585, "lon": -126.2096790372701, "alt_km": 849.8886609210895, "timestamp": "2025-12-22T08:58:19.986679+00:00", "meta": {"OBJECT_NAME": "FENGYUN 3B", "OBJECT_ID": "2010-059A", "EPOCH": "2025-12-22T05:24:25.284960", "MEAN_MOTION": 14.14791588, "ECCENTRICITY": 0.0021614, "INCLINATION": 98.9894, "RA_OF_ASC_NODE": 36.2686, "ARG_OF_PERICENTER": 330.7696, "MEAN_ANOMALY": 109.4182, "EPHEMERIS_TYPE": 0, "CLASSIFICATION_TYPE": "U", "NORAD_CAT_ID": 37214, "ELEMENT_SET_NO": 999, "REV_AT_EPOCH": 78240, "BSTAR": -3.384e-05, "MEAN_MOTION_DOT": -1.11e-06, "MEAN_MOTION_DDOT": 0}, "tle": {"line1": "1 37214U 10059A   25356.22529265 -.00000111  00000+0 -33840-4 0  9992", "line2": "2 37214  98.9894  36.2686 0021614 330.7696 109.4182 14.14791588782409"}}, "geometry": {"type": "Point", "coordinates": [-126.2096790372701, 62.06905119153585]}}, {"type": "Feature", "properties": {"norad_id": 37849, "name": "SUOMI NPP", "group": "weather", "lat": 58.18950570558069, "lon": 128.05451652049095, "alt_km": 819.6346256269571, "timestamp": "2025-12-22T08:58:19.986691+00:00", "meta": {"OBJECT_NAME": "SUOMI NPP", "OBJECT_ID": "2011-061A", "EPOCH": "2025-12-21T22:15:21.719808", "MEAN_MOTION": 14.19516721, "ECCENTRICITY": 0.0002479, "INCLINATION": 98.7786, "RA_OF_ASC_NODE": 293.1866, "ARG_OF_PERICENTER": 104.3593, "MEAN_ANOMALY": 255.7858, "EPHEMERIS_TYPE": 0, "CLASSIFICATION_TYPE": "U", "NORAD_CAT_ID": 37849, "ELEMENT_SET_NO": 999, "REV_AT_EPOCH": 73329, "BSTAR": 6.3109e-05, "MEAN_MOTION_DOT": 8.9e-07, "MEAN_MOTION_DDOT": 0}, "tle": {"line1": "1 37849U 11061A   25355.92733472  .00000089  00000+0  63109-4 0  9996", "line2": "2 37849  98.7786 293.1866 0002479 104.3593 255.7858 14.19516721733291"}}, "geometry": {"type": "Point", "coordinates": [128.05451652049095, 58.18950570558069]}}]}